[{"OBJECT_NAME":"STARLINK-31499","OBJECT_ID":"2024-046S","EPOCH":"2026-03-09T11:59:40.796736","MEAN_MOTION":15.30186181,"ECCENTRICITY":0.00011893,"INCLINATION":53.1605,"RA_OF_ASC_NODE":155.9918,"ARG_OF_PERICENTER":93.034,"MEAN_ANOMALY":267.0797,"EPHEMERIS_TYPE":0,"CLASSIFICATION_TYPE":"U","NORAD_CAT_ID":59217,"ELEMENT_SET_NO":999,"REV_AT_EPOCH":11301,"BSTAR":1.310289e-6,"MEAN_MOTION_DOT":-3.2e-6,"MEAN_MOTION_DDOT":0},{"OBJECT_NAME":"AIST-2 (RS43)","OBJECT_ID":"2013-015D","EPOCH":"2026-03-09T22:52:25.813056","MEAN_MOTION":15.25079544,"ECCENTRICITY":0.00239979,"INCLINATION":64.8687,"RA_OF_ASC_NODE":221.5348,"ARG_OF_PERICENTER":248.8384,"MEAN_ANOMALY":111.0181,"EPHEMERIS_TYPE":0,"CLASSIFICATION_TYPE":"U","NORAD_CAT_ID":39133,"ELEMENT_SET_NO":999,"REV_AT_EPOCH":70876,"BSTAR":0.00037899099,"MEAN_MOTION_DOT":9.402e-5,"MEAN_MOTION_DDOT":0}]
